SMAP                    
1 40376U 15003A   26191.87469620  .00000224  00000+0  52428-4 0  9992
2 40376  98.1281 198.6342 0001565  95.8496 264.2885 14.63386837611082
SKYSAT-C4               
1 41771U 16058B   26191.84734605  .00011381  00000+0  20937-3 0  9993
2 41771  96.9170 212.6388 0003311 124.5912 235.5653 15.49338612549139
SKYSAT-C5               
1 41772U 16058C   26190.92648947  .00007436  00000+0  22860-3 0  9998
2 41772  97.0465 230.5527 0002034 135.3938 224.7470 15.33955160547234
SKYSAT-C2               
1 41773U 16058D   26191.48618128  .00008725  00000+0  20244-3 0  9995
2 41773  97.0164 212.7103 0002034  13.3625 346.7677 15.42607580548641
SKYSAT-C3               
1 41774U 16058E   26191.01715193  .00018005  00000+0  28437-3 0  9999
2 41774  96.9003 220.9981 0002189 133.5121 226.6316 15.53540793549656
SKYSAT-C11              
1 42987U 17068A   26190.65835404  .00021499  00000+0  27645-3 0  9996
2 42987  97.4368 340.4901 0000812 166.0165 194.1114 15.59105762486747
SKYSAT-C9               
1 42989U 17068C   26190.62943440  .00009130  00000+0  21510-3 0  9998
2 42989  97.4443 328.8561 0009064  62.2816 297.9350 15.42121068486218
SKYSAT-C8               
1 42990U 17068D   26190.65650340  .00007514  00000+0  20712-3 0  9994
2 42990  97.4543 327.6181 0001224  99.9689 260.1694 15.37418486485760
SKYSAT-C7               
1 42991U 17068E   26191.17151926  .00007419  00000+0  20468-3 0  9991
2 42991  97.4551 329.1314 0006142  37.9429 322.2247 15.37378749485900
SKYSAT-C6               
1 42992U 17068F   26190.64887445  .00006518  00000+0  19987-3 0  9998
2 42992  97.4588 328.4799 0005162 103.1836 256.9983 15.34106572485763
